CUBEBUG-2 (LO-74)       
1 39440U 13066AA  26068.83168078  .00006310  00000+0  59321-3 0  9991
2 39440  97.8812  17.5050 0058705 358.4894   1.6138 14.92958446662163
STARLINK-5591           
1 55771U 23028AG  26068.82371507  .00001439  00000+0  12837-3 0  9995
2 55771  69.9995 224.0962 0003052 271.1011  88.9798 14.98331041166558
